NORAD_CAT_ID,OBJECT_NAME,OBJECT_TYPE,EPOCH,MEAN_MOTION,ECCENTRICITY,INCLINATION,RA_OF_ASC_NODE,ARG_OF_PERICENTER,MEAN_ANOMALY,BSTAR,MEAN_MOTION_DOT,MEAN_MOTION_DDOT,TLE_LINE0,TLE_LINE1,TLE_LINE2,SEMIMAJOR_AXIS,PERIOD,APOGEE,PERIGEE,DECAYED
52114.0,STARLINK-3737,PAYLOAD,2024-04-20 12:24:41,15.08828177,0.0001568,53.2178,288.4399,104.7603,255.3563,-3.1866e-05,-7.95e-06,0.0,0 STARLINK-3737,1 52114U 22029AC  24111.51715173 -.00000795  00000-0 -31866-4 0  9998,2 52114  53.2178 288.4399 0001568 104.7603 255.3563 15.08828177116908,6917.917,95.438,540.866,538.697,0.0
52114.0,STARLINK-3737,PAYLOAD,2024-04-20 17:10:51,15.08815248,0.0001546,53.2176,287.5486,100.1668,259.9499,-0.00022155,-3.81e-05,0.0,0 STARLINK-3737,1 52114U 22029AC  24111.71587951 -.00003810  00000-0 -22155-3 0  9992,2 52114  53.2176 287.5486 0001546 100.1668 259.9499 15.08815248116936,6917.956,95.439,540.891,538.752,0.0
52114.0,STARLINK-3737,PAYLOAD,2024-04-21 12:15:28,15.08843056,0.0001332,53.2176,283.9878,75.5442,284.5698,0.000189,2.722e-05,0.0,0 STARLINK-3737,1 52114U 22029AC  24112.51075105  .00002722  00000-0  18900-3 0  9996,2 52114  53.2176 283.9878 0001332  75.5442 284.5698 15.08843056117045,6917.871,95.437,540.658,538.815,0.0
52114.0,STARLINK-3737,PAYLOAD,2024-04-21 17:01:37,15.08860318,0.0001466,53.2172,283.0935,85.8457,274.2702,0.00041932,6.395e-05,0.0,0 STARLINK-3737,1 52114U 22029AC  24112.70946138  .00006395  00000-0  41932-3 0  9991,2 52114  53.2172 283.0935 0001466  85.8457 274.2702 15.08860318117080,6917.818,95.436,540.697,538.669,0.0
52114.0,STARLINK-3737,PAYLOAD,2024-04-21 21:47:46,15.08869419,0.0001346,53.2171,282.1976,88.2254,271.8893,0.00050995,7.844e-05,0.0,0 STARLINK-3737,1 52114U 22029AC  24112.90817415  .00007844  00000-0  50995-3 0  9997,2 52114  53.2171 282.1976 0001346  88.2254 271.8893 15.08869419117101,6917.79,95.436,540.587,538.724,0.0
52114.0,STARLINK-3737,PAYLOAD,2024-04-22 10:30:52,15.08832923,0.0001631,53.2175,279.8192,118.1158,241.9999,0.00023512,3.455e-05,0.0,0 STARLINK-3737,1 52114U 22029AC  24113.43811338  .00003455  00000-0  23512-3 0  9993,2 52114  53.2175 279.8192 0001631 118.1158 241.9999 15.08832923117195,6917.902,95.438,540.895,538.639,0.0
52114.0,STARLINK-3737,PAYLOAD,2024-04-22 20:03:10,15.0885965,0.000129,53.2172,278.034,111.4663,248.6467,0.00040274,6.131e-05,0.0,0 STARLINK-3737,1 52114U 22029AC  24113.83554025  .00006131  00000-0  40274-3 0  9992,2 52114  53.2172 278.0340 0001290 111.4663 248.6467 15.08859650117253,6917.82,95.436,540.578,538.793,0.0
52114.0,STARLINK-3737,PAYLOAD,2024-04-23 10:21:39,15.08835827,0.000154,53.2171,275.3643,86.1309,273.986,-0.00018324,-3.203e-05,0.0,0 STARLINK-3737,1 52114U 22029AC  24114.43170818 -.00003203  00000-0 -18324-3 0  9993,2 52114  53.2171 275.3643 0001540  86.1309 273.9860 15.08835827117349,6917.893,95.438,540.823,538.693,0.0
52114.0,STARLINK-3737,PAYLOAD,2024-04-23 18:18:35,15.08844012,0.0001704,53.2174,273.8763,76.4494,283.6687,-1.6919e-05,-5.57e-06,0.0,0 STARLINK-3737,1 52114U 22029AC  24114.76290608 -.00000557  00000-0 -16919-4 0  9997,2 52114  53.2174 273.8763 0001704  76.4494 283.6687 15.08844012117382,6917.868,95.437,540.912,538.554,0.0
52114.0,STARLINK-3737,PAYLOAD,2024-04-24 10:12:26,15.08840494,0.0001892,53.2174,270.9046,71.4004,288.7193,0.00023611,3.472e-05,0.0,0 STARLINK-3737,1 52114U 22029AC  24115.42531190  .00003472  00000-0  23611-3 0  9998,2 52114  53.2174 270.9046 0001892  71.4004 288.7193 15.08840494117494,6917.879,95.438,541.053,538.435,0.0
52114.0,STARLINK-3737,PAYLOAD,2024-04-24 16:33:59,15.08844639,0.0001745,53.2174,269.7165,67.1627,292.9549,0.00025141,3.716e-05,0.0,0 STARLINK-3737,1 52114U 22029AC  24115.69027049  .00003716  00000-0  25141-3 0  9991,2 52114  53.2174 269.7165 0001745  67.1627 292.9549 15.08844639117523,6917.866,95.437,540.938,538.524,0.0
52114.0,STARLINK-3737,PAYLOAD,2024-04-25 13:14:00,15.08839816,0.0001618,53.218,265.8468,86.3492,273.7685,8.1861e-05,1.015e-05,0.0,0 STARLINK-3737,1 52114U 22029AC  24116.55139213  .00001015  00000-0  81861-4 0  9996,2 52114  53.2180 265.8468 0001618  86.3492 273.7685 15.08839816117669,6917.881,95.438,540.865,538.627,0.0
52114.0,STARLINK-3737,PAYLOAD,2024-04-25 14:49:23,15.08840299,0.0001598,53.2178,265.5483,85.8677,274.2498,8.9873e-05,1.143e-05,0.0,0 STARLINK-3737,1 52114U 22029AC  24116.61763176  .00001143  00000-0  89873-4 0  9997,2 52114  53.2178 265.5483 0001598  85.8677 274.2498 15.08840299117661,6917.879,95.438,540.85,538.639,0.0
52114.0,STARLINK-3737,PAYLOAD,2024-04-25 16:24:46,15.08840715,0.000155,53.2177,265.2501,83.9849,276.132,0.00010568,1.394e-05,0.0,0 STARLINK-3737,1 52114U 22029AC  24116.68387169  .00001394  00000-0  10568-3 0  9990,2 52114  53.2177 265.2501 0001550  83.9849 276.1320 15.08840715117675,6917.878,95.438,540.815,538.671,0.0
52114.0,STARLINK-3737,PAYLOAD,2024-04-26 14:40:10,15.08842698,0.0001679,53.2185,261.0917,87.6642,272.4542,8.6949e-05,1.096e-05,0.0,0 STARLINK-3737,1 52114U 22029AC  24117.61123453  .00001096  00000-0  86949-4 0  9994,2 52114  53.2185 261.0917 0001679  87.6642 272.4542 15.08842698117816,6917.872,95.437,540.899,538.576,0.0
52114.0,STARLINK-3737,PAYLOAD,2024-04-26 16:15:33,15.08844306,0.0001641,53.219,260.7948,87.2887,272.8293,0.0001183,1.595e-05,0.0,0 STARLINK-3737,1 52114U 22029AC  24117.67747275  .00001595  00000-0  11830-3 0  9994,2 52114  53.2190 260.7948 0001641  87.2887 272.8293 15.08844306117835,6917.867,95.437,540.867,538.597,0.0
52114.0,STARLINK-3737,PAYLOAD,2024-04-27 12:55:34,15.08840581,0.0001534,53.2184,256.9298,90.5625,269.5543,0.00018381,2.639e-05,0.0,0 STARLINK-3737,1 52114U 22029AC  24118.53859753  .00002639  00000-0  18381-3 0  9993,2 52114  53.2184 256.9298 0001534  90.5625 269.5543 15.08840581117967,6917.879,95.438,540.805,538.682,0.0
52114.0,STARLINK-3737,PAYLOAD,2024-04-27 14:30:57,15.08842285,0.0001572,53.2186,256.6326,89.986,270.1312,0.00020818,3.027e-05,0.0,0 STARLINK-3737,1 52114U 22029AC  24118.60483721  .00003027  00000-0  20818-3 0  9999,2 52114  53.2186 256.6326 0001572  89.9860 270.1312 15.08842285117968,6917.873,95.437,540.826,538.651,0.0
52114.0,STARLINK-3737,PAYLOAD,2024-04-27 19:17:06,15.0885298,0.0001383,53.2171,255.7355,78.9437,281.1711,0.00037848,5.743e-05,0.0,0 STARLINK-3737,1 52114U 22029AC  24118.80355255  .00005743  00000-0  37848-3 0  9999,2 52114  53.2171 255.7355 0001383  78.9437 281.1711 15.08852980117993,6917.841,95.437,540.662,538.749,0.0
52114.0,STARLINK-3737,PAYLOAD,2024-04-28 12:46:22,15.08826195,0.0001227,53.218,252.465,88.021,272.0923,-0.00019249,-3.349e-05,0.0,0 STARLINK-3737,1 52114U 22029AC  24119.53220368 -.00003349  00000-0 -19249-3 0  9993,2 52114  53.2180 252.4650 0001227  88.0210 272.0923 15.08826195118111,6917.923,95.438,540.636,538.939,0.0
52114.0,STARLINK-3737,PAYLOAD,2024-04-28 14:21:45,15.08827046,0.0001275,53.2177,252.1675,90.1875,269.9263,-0.0001548,-2.75e-05,0.0,0 STARLINK-3737,1 52114U 22029AC  24119.59844396 -.00002750  00000-0 -15480-3 0  9990,2 52114  53.2177 252.1675 0001275  90.1875 269.9263 15.08827046118113,6917.92,95.438,540.667,538.903,0.0
52114.0,STARLINK-3737,PAYLOAD,2024-04-28 19:07:54,15.08840823,0.0001133,53.2177,251.2737,87.08,273.0322,0.00013398,1.845e-05,0.0,0 STARLINK-3737,1 52114U 22029AC  24119.79715951  .00001845  00000-0  13398-3 0  9994,2 52114  53.2177 251.2737 0001133  87.0800 273.0322 15.08840823118152,6917.878,95.438,540.527,538.959,0.0
52114.0,STARLINK-3737,PAYLOAD,2024-04-29 12:37:09,15.08840192,0.0001443,53.2184,248.0075,108.4288,251.6861,0.00011347,1.518e-05,0.0,0 STARLINK-3737,1 52114U 22029AC  24120.52580299  .00001518  00000-0  11347-3 0  9991,2 52114  53.2184 248.0075 0001443 108.4288 251.6861 15.08840192118251,6917.88,95.438,540.743,538.747,0.0
52114.0,STARLINK-3737,PAYLOAD,2024-04-29 15:47:55,15.08845109,0.0001458,53.2175,247.4107,97.4566,262.6591,0.00020877,3.037e-05,0.0,0 STARLINK-3737,1 52114U 22029AC  24120.65828160  .00003037  00000-0  20877-3 0  9993,2 52114  53.2175 247.4107 0001458  97.4566 262.6591 15.08845109118279,6917.865,95.437,540.738,538.721,0.0
52114.0,STARLINK-3737,PAYLOAD,2024-04-30 01:20:14,15.08844331,0.0001466,53.2174,245.6261,97.9248,262.191,0.00020058,2.906e-05,0.0,0 STARLINK-3737,1 52114U 22029AC  24121.05572219  .00002906  00000-0  20058-3 0  9994,2 52114  53.2174 245.6261 0001466  97.9248 262.1910 15.08844331118344,6917.867,95.437,540.746,538.718,0.0
52114.0,STARLINK-3737,PAYLOAD,2024-04-30 14:03:19,15.08846076,0.0001335,53.2172,243.2485,101.2177,258.8965,0.00021358,3.113e-05,0.0,0 STARLINK-3737,1 52114U 22029AC  24121.58564161  .00003113  00000-0  21358-3 0  9994,2 52114  53.2172 243.2485 0001335 101.2177 258.8965 15.08846076118417,6917.862,95.437,540.65,538.803,0.0
52114.0,STARLINK-3737,PAYLOAD,2024-04-30 15:38:42,15.08847951,0.000128,53.2174,242.9516,100.8975,259.2161,0.0002356,3.464e-05,0.0,0 STARLINK-3737,1 52114U 22029AC  24121.65188065  .00003464  00000-0  23560-3 0  9993,2 52114  53.2174 242.9516 0001280 100.8975 259.2161 15.08847951118427,6917.856,95.437,540.607,538.836,0.0
52114.0,STARLINK-3737,PAYLOAD,2024-05-01 13:54:06,15.0884885,0.0001459,53.218,238.7893,87.8765,272.2394,0.00016265,2.302e-05,0.0,0 STARLINK-3737,1 52114U 22029AC  24122.57923910  .00002302  00000-0  16265-3 0  9995,2 52114  53.2180 238.7893 0001459  87.8765 272.2394 15.08848850118561,6917.853,95.437,540.728,538.709,0.0
52114.0,STARLINK-3737,PAYLOAD,2024-05-02 13:44:53,15.08838669,0.0001158,53.2157,234.3276,90.8256,269.2868,3.1168e-05,2.08e-06,0.0,0 STARLINK-3737,1 52114U 22029AC  24123.57284169  .00000208  00000-0  31168-4 0  9995,2 52114  53.2157 234.3276 0001158  90.8256 269.2868 15.08838669118724,6917.884,95.438,540.551,538.948,0.0
52114.0,STARLINK-3737,PAYLOAD,2024-05-03 13:35:39,15.08849812,0.0001338,53.2161,229.8662,94.3186,265.7959,0.00017228,2.456e-05,0.0,0 STARLINK-3737,1 52114U 22029AC  24124.56643406  .00002456  00000-0  17228-3 0  9995,2 52114  53.2161 229.8662 0001338  94.3186 265.7959 15.08849812118878,6917.85,95.437,540.641,538.79,0.0
